NORAD_CAT_ID,OBJECT_NAME,OBJECT_TYPE,EPOCH,MEAN_MOTION,ECCENTRICITY,INCLINATION,RA_OF_ASC_NODE,ARG_OF_PERICENTER,MEAN_ANOMALY,BSTAR,MEAN_MOTION_DOT,MEAN_MOTION_DDOT,TLE_LINE0,TLE_LINE1,TLE_LINE2,SEMIMAJOR_AXIS,PERIOD,APOGEE,PERIGEE,DECAYED
55933.0,STARLINK-5852,PAYLOAD,2024-06-25 01:23:49,14.98330242,0.0002784,70.0006,54.4317,257.0211,103.0637,-1.4884e-05,-2.71e-06,0.0,0 STARLINK-5852,1 55933U 23037V   24177.05821284 -.00000271  00000-0 -14884-4 0  9992,2 55933  70.0006  54.4317 0002784 257.0211 103.0637 14.98330242 70714,6950.192,96.107,573.992,570.122,0.0
55933.0,STARLINK-5852,PAYLOAD,2024-06-25 20:37:26,14.98331655,0.0002838,70.0006,52.4116,257.5065,102.5776,2.7649e-05,2.37e-06,0.0,0 STARLINK-5852,1 55933U 23037V   24177.85932999  .00000237  00000-0  27649-4 0  9999,2 55933  70.0006  52.4116 0002838 257.5065 102.5776 14.98331655 71179,6950.188,96.107,574.025,570.08,0.0
55933.0,STARLINK-5852,PAYLOAD,2024-06-25 22:13:34,14.98330987,0.0002851,70.0006,52.2433,257.8711,102.2128,1.8705e-05,1.3e-06,0.0,0 STARLINK-5852,1 55933U 23037V   24177.92609063  .00000130  00000-0  18705-4 0  9995,2 55933  70.0006  52.2433 0002851 257.8711 102.2128 14.98330987 70843,6950.19,96.107,574.036,570.073,0.0
55933.0,STARLINK-5852,PAYLOAD,2024-06-26 01:25:50,14.98332258,0.0002835,70.0006,51.9068,257.4955,102.5887,3.3414e-05,3.06e-06,0.0,0 STARLINK-5852,1 55933U 23037V   24178.05960928  .00000306  00000-0  33414-4 0  9999,2 55933  70.0006  51.9068 0002835 257.4955 102.5887 14.98332258 70861,6950.186,96.107,574.021,570.081,0.0
55933.0,STARLINK-5852,PAYLOAD,2024-06-27 01:27:51,14.98325636,0.0002855,70.0007,49.3831,256.7684,103.3157,4.6042e-06,-3.8e-07,0.0,0 STARLINK-5852,1 55933U 23037V   24179.06101512 -.00000038  00000-0  46042-5 0  9992,2 55933  70.0007  49.3831 0002855 256.7684 103.3157 14.98325636 71350,6950.206,96.107,574.056,570.087,0.0
55933.0,STARLINK-5852,PAYLOAD,2024-06-27 22:17:36,14.98331617,0.0002923,70.0004,47.1938,266.43,93.6525,2.7576e-05,2.36e-06,0.0,0 STARLINK-5852,1 55933U 23037V   24179.92889228  .00000236  00000-0  27576-4 0  9993,2 55933  70.0004  47.1938 0002923 266.4300  93.6525 14.98331617 71143,6950.188,96.107,574.084,570.021,0.0
55933.0,STARLINK-5852,PAYLOAD,2024-06-28 01:29:52,14.9833311,0.0002919,70.0005,46.8575,266.3623,93.7203,4.2625e-05,4.16e-06,0.0,0 STARLINK-5852,1 55933U 23037V   24180.06241078  .00000416  00000-0  42625-4 0  9997,2 55933  70.0005  46.8575 0002919 266.3623  93.7203 14.98333110 71503,6950.183,96.107,574.077,570.02,0.0
55933.0,STARLINK-5852,PAYLOAD,2024-06-28 07:54:24,14.98332376,0.0002868,70.0006,46.1841,266.7968,93.2863,5.8335e-05,6.03e-06,0.0,0 STARLINK-5852,1 55933U 23037V   24180.32945098  .00000603  00000-0  58335-4 0  9992,2 55933  70.0006  46.1841 0002868 266.7968  93.2863 14.98332376 71209,6950.186,96.107,574.044,570.057,0.0
55933.0,STARLINK-5852,PAYLOAD,2024-06-28 22:19:36,14.98341092,0.0002902,70.0001,44.6678,269.3757,90.707,0.00016477,1.874e-05,0.0,0 STARLINK-5852,1 55933U 23037V   24180.93028143  .00001874  00000-0  16477-3 0  9993,2 55933  70.0001  44.6678 0002902 269.3757  90.7070 14.98341092 71295,6950.159,96.106,574.041,570.007,0.0
55933.0,STARLINK-5852,PAYLOAD,2024-06-28 23:55:44,14.98343604,0.0002879,70.0003,44.4997,268.987,91.0959,0.00019238,2.204e-05,0.0,0 STARLINK-5852,1 55933U 23037V   24180.99703879  .00002204  00000-0  19238-3 0  9991,2 55933  70.0003  44.4997 0002879 268.9870  91.0959 14.98343604 71643,6950.151,96.106,574.017,570.015,0.0
55933.0,STARLINK-5852,PAYLOAD,2024-06-29 14:20:58,14.98326003,0.0002895,70.0013,42.9886,261.5676,98.5155,-1.122e-05,-2.27e-06,0.0,0 STARLINK-5852,1 55933U 23037V   24181.59789470 -.00000227  00000-0 -11220-4 0  9998,2 55933  70.0013  42.9886 0002895 261.5676  98.5155 14.98326003 71391,6950.205,96.107,574.082,570.058,0.0
55933.0,STARLINK-5852,PAYLOAD,2024-06-29 20:45:30,14.98322803,0.0003284,69.9995,42.3116,273.998,86.0804,-9.2391e-05,-1.195e-05,0.0,0 STARLINK-5852,1 55933U 23037V   24181.86493989 -.00001195  00000-0 -92391-4 0  9998,2 55933  69.9995  42.3116 0003284 273.9980  86.0804 14.98322803 71774,6950.215,96.107,574.363,569.798,0.0
55933.0,STARLINK-5852,PAYLOAD,2024-06-29 22:21:38,14.98322752,0.0003236,69.9994,42.143,273.8803,86.1986,-9.1561e-05,-1.185e-05,0.0,0 STARLINK-5852,1 55933U 23037V   24181.93170014 -.00001185  00000-0 -91561-4 0  9994,2 55933  69.9994  42.1430 0003236 273.8803  86.1986 14.98322752 71449,6950.215,96.107,574.329,569.831,0.0
55933.0,STARLINK-5852,PAYLOAD,2024-06-30 07:58:26,14.98329461,0.000309,69.9998,41.1318,274.1315,85.949,-3.0131e-05,-4.53e-06,0.0,0 STARLINK-5852,1 55933U 23037V   24182.33225565 -.00000453  00000-0 -30131-4 0  9994,2 55933  69.9998  41.1318 0003090 274.1315  85.9490 14.98329461 71842,6950.195,96.107,574.207,569.912,0.0
55933.0,STARLINK-5852,PAYLOAD,2024-06-30 14:22:59,14.98331397,0.0003119,69.9995,40.458,274.2523,85.828,-2.0035e-05,-3.32e-06,0.0,0 STARLINK-5852,1 55933U 23037V   24182.59929413 -.00000332  00000-0 -20035-4 0  9993,2 55933  69.9995  40.4580 0003119 274.2523  85.8280 14.98331397 71540,6950.189,96.107,574.221,569.886,0.0
55933.0,STARLINK-5852,PAYLOAD,2024-06-30 20:47:30,14.98336872,0.0003147,69.9998,39.786,272.7685,87.3114,7.8702e-05,8.46e-06,0.0,0 STARLINK-5852,1 55933U 23037V   24182.86632838  .00000846  00000-0  78702-4 0  9997,2 55933  69.9998  39.7860 0003147 272.7685  87.3114 14.98336872 71926,6950.172,96.107,574.224,569.849,0.0
55933.0,STARLINK-5852,PAYLOAD,2024-06-30 22:23:38,14.98340392,0.0003151,69.9994,39.6171,271.8058,88.2741,5.753e-05,5.94e-06,0.0,0 STARLINK-5852,1 55933U 23037V   24182.93308596  .00000594  00000-0  57530-4 0  9992,2 55933  69.9994  39.6171 0003151 271.8058  88.2741 14.98340392 71596,6950.161,96.106,574.216,569.836,0.0
55933.0,STARLINK-5852,PAYLOAD,2024-07-01 14:24:59,14.98323426,0.000295,70.0001,37.9352,273.2756,86.8065,0.00019051,2.18e-05,0.0,0 STARLINK-5852,1 55933U 23037V   24183.60069318  .00002180  00000-0  19051-3 0  9991,2 55933  70.0001  37.9352 0002950 273.2756  86.8065 14.98323426 71690,6950.213,96.107,574.129,570.028,0.0
55933.0,STARLINK-5852,PAYLOAD,2024-07-01 20:49:31,14.98327691,0.0002955,70.0,37.2607,270.6689,89.4132,0.00022719,2.619e-05,0.0,0 STARLINK-5852,1 55933U 23037V   24183.86773135  .00002619  00000-0  22719-3 0  9990,2 55933  70.0000  37.2607 0002955 270.6689  89.4132 14.98327691 72071,6950.2,96.107,574.119,570.011,0.0
55933.0,STARLINK-5852,PAYLOAD,2024-07-01 22:25:40,14.983275,0.0002979,69.9998,37.0922,270.1774,89.9043,0.00022718,2.619e-05,0.0,0 STARLINK-5852,1 55933U 23037V   24183.93449202  .00002619  00000-0  22718-3 0  9992,2 55933  69.9998  37.0922 0002979 270.1774  89.9043 14.98327500 71746,6950.201,96.107,574.136,569.995,0.0
55933.0,STARLINK-5852,PAYLOAD,2024-07-02 14:27:00,14.98328401,0.0002909,70.0002,35.4088,270.734,89.3485,0.00019013,2.176e-05,0.0,0 STARLINK-5852,1 55933U 23037V   24184.60209240  .00002176  00000-0  19013-3 0  9995,2 55933  70.0002  35.4088 0002909 270.7340  89.3485 14.98328401 71844,6950.198,96.107,574.085,570.041,0.0
55933.0,STARLINK-5852,PAYLOAD,2024-07-02 20:51:32,14.98334633,0.0002904,70.0002,34.7355,270.0972,89.9855,3.1312e-05,2.81e-06,0.0,0 STARLINK-5852,1 55933U 23037V   24184.86913046  .00000281  00000-0  31312-4 0  9991,2 55933  70.0002  34.7355 0002904 270.0972  89.9855 14.98334633 72226,6950.179,96.107,574.062,570.025,0.0
55933.0,STARLINK-5852,PAYLOAD,2024-07-02 22:27:40,14.98336307,0.0002898,70.0002,34.5672,270.1567,89.9259,4.7482e-05,4.74e-06,0.0,0 STARLINK-5852,1 55933U 23037V   24184.93588867  .00000474  00000-0  47482-4 0  9997,2 55933  70.0002  34.5672 0002898 270.1567  89.9259 14.98336307 71899,6950.173,96.107,574.053,570.024,0.0
55933.0,STARLINK-5852,PAYLOAD,2024-07-03 20:53:33,14.98332159,0.0002956,70.0002,32.2112,270.0366,90.0455,3.6153e-05,3.38e-06,0.0,0 STARLINK-5852,1 55933U 23037V   24185.87052942  .00000338  00000-0  36153-4 0  9993,2 55933  70.0002  32.2112 0002956 270.0366  90.0455 14.98332159 72370,6950.186,96.107,574.106,569.997,0.0
55933.0,STARLINK-5852,PAYLOAD,2024-07-04 14:31:02,14.98330673,0.0002908,70.0003,30.3595,270.9826,89.1,3.5865e-05,3.35e-06,0.0,0 STARLINK-5852,1 55933U 23037V   24186.60488928  .00000335  00000-0  35865-4 0  9998,2 55933  70.0003  30.3595 0002908 270.9826  89.1000 14.98330673 72141,6950.191,96.107,574.077,570.035,0.0
55933.0,STARLINK-5852,PAYLOAD,2024-07-04 20:55:34,14.98331925,0.0002878,70.0004,29.6867,267.7602,92.3227,4.0087e-05,3.85e-06,0.0,0 STARLINK-5852,1 55933U 23037V   24186.87192819  .00000385  00000-0  40087-4 0  9995,2 55933  70.0004  29.6867 0002878 267.7602  92.3227 14.98331925 72527,6950.187,96.107,574.052,570.052,0.0
55933.0,STARLINK-5852,PAYLOAD,2024-07-04 22:31:42,14.98332958,0.0002869,70.0004,29.5184,267.5148,92.5683,5.0477e-05,5.09e-06,0.0,0 STARLINK-5852,1 55933U 23037V   24186.93868715  .00000509  00000-0  50477-4 0  9999,2 55933  70.0004  29.5184 0002869 267.5148  92.5683 14.98332958 72199,6950.184,96.107,574.043,570.055,0.0
55933.0,STARLINK-5852,PAYLOAD,2024-07-05 14:33:03,14.98331459,0.0002909,70.0003,27.8349,267.9896,92.093,5.8678e-05,6.07e-06,0.0,0 STARLINK-5852,1 55933U 23037V   24187.60628713  .00000607  00000-0  58678-4 0  9996,2 55933  70.0003  27.8349 0002909 267.9896  92.0930 14.98331459 72297,6950.188,96.107,574.075,570.032,0.0
55933.0,STARLINK-5852,PAYLOAD,2024-07-05 20:57:35,14.98332652,0.0002907,70.0004,27.1617,267.9595,92.1231,6.8573e-05,7.25e-06,0.0,0 STARLINK-5852,1 55933U 23037V   24187.87332602  .00000725  00000-0  68573-4 0  9990,2 55933  70.0004  27.1617 0002907 267.9595  92.1231 14.98332652 72676,6950.185,96.107,574.07,570.029,0.0
55933.0,STARLINK-5852,PAYLOAD,2024-07-05 22:33:43,14.98333613,0.0002902,70.0004,26.9934,267.8846,92.1981,7.8197e-05,8.4e-06,0.0,0 STARLINK-5852,1 55933U 23037V   24187.94008506  .00000840  00000-0  78197-4 0  9992,2 55933  70.0004  26.9934 0002902 267.8846  92.1981 14.98333613 72342,6950.182,96.107,574.064,570.03,0.0
